{
 "type": "FeatureCollection",
 "name": "e1834_harbor_cut hydrology",
 "crs": {
  "type": "name",
  "properties": {
   "name": "urn:ogc:def:crs:EPSG::26916"
  }
 },
 "_doc": "Secondary water at the forks. Generated by tools/trace_river.py \u2014 do not hand-edit. Marsh extents live in terrain_spec.json, which is authored.",
 "features": [
  {
   "type": "Feature",
   "id": "north_side_slough",
   "geometry": {
    "type": "LineString",
    "coordinates": [
     [
      447231.03,
      4637737.49
     ],
     [
      447230.03,
      4637733.12
     ],
     [
      447228.08,
      4637728.7299999995
     ],
     [
      447225.88,
      4637724.34
     ],
     [
      447223.52,
      4637719.9399999995
     ],
     [
      447220.83,
      4637715.54
     ],
     [
      447218.24,
      4637711.14
     ],
     [
      447216.36,
      4637706.75
     ],
     [
      447214.98000000004,
      4637702.37
     ],
     [
      447213.57,
      4637698.0
     ],
     [
      447212.64,
      4637693.63
     ],
     [
      447211.81,
      4637689.26
     ],
     [
      447210.94,
      4637684.899999999
     ],
     [
      447209.67,
      4637680.52
     ],
     [
      447208.06,
      4637676.14
     ],
     [
      447206.79000000004,
      4637671.77
     ],
     [
      447205.95,
      4637667.399999999
     ],
     [
      447205.72000000003,
      4637663.05
     ],
     [
      447206.31,
      4637658.72
     ],
     [
      447207.64,
      4637654.399999999
     ],
     [
      447209.42,
      4637650.08
     ],
     [
      447211.11,
      4637645.77
     ],
     [
      447212.66000000003,
      4637641.45
     ],
     [
      447214.2,
      4637637.14
     ],
     [
      447215.74,
      4637632.819999999
     ],
     [
      447217.18,
      4637628.5
     ],
     [
      447218.69,
      4637624.1899999995
     ],
     [
      447220.60000000003,
      4637619.88
     ],
     [
      447222.22000000003,
      4637615.569999999
     ],
     [
      447224.07,
      4637611.26
     ],
     [
      447226.53,
      4637606.96
     ],
     [
      447229.62,
      4637602.67
     ],
     [
      447232.89,
      4637598.39
     ],
     [
      447236.75,
      4637594.13
     ],
     [
      447240.88,
      4637589.859999999
     ],
     [
      447245.0,
      4637585.6
     ],
     [
      447248.75,
      4637581.33
     ],
     [
      447251.95,
      4637577.05
     ],
     [
      447254.79000000004,
      4637572.76
     ],
     [
      447257.15,
      4637568.46
     ],
     [
      447258.69,
      4637564.14
     ],
     [
      447259.85000000003,
      4637559.819999999
     ],
     [
      447261.12,
      4637555.5
     ],
     [
      447261.91000000003,
      4637551.17
     ],
     [
      447262.25,
      4637548.27
     ]
    ]
   },
   "properties": {
    "kind": "watercourse_centreline",
    "name": "Unnamed slough, north side",
    "confidence": "documented",
    "note": "Wright 1834 draws a narrow winding watercourse running north out of the main stem, across Kinzie Street, ending at Michigan Street. Its existence and course are documented by the map; this is a CENTRELINE because the bank wash survives only in 5 fragments \u2014 the pink Kinzie ward band and the lot lines it crosses erase the rest \u2014 so a traced boundary would be a fiction. Probably one of the three sloughs off the Main Branch shown on the 1830 Thompson plat. Depth is conjectural: no source gives one.",
    "drafted_width_m": 7.1,
    "width_confidence": "derived",
    "assumed_depth_ft_below_datum": 1.0,
    "depth_confidence": "inferred",
    "sources": [
     "wright_1834",
     "thompson_plat_1830"
    ],
    "provenance": {
     "traced_from": "wright_1834",
     "method": "grey bank-wash segmentation of the BPL master scan, closed across the unshaded mid-channel; boundary traced and simplified; pixels transformed to EPSG:26916 by the least-squares affine refit from data/traces/gcp/wright_1834_gcps.json",
     "tool": "tools/trace_river.py",
     "iiif_region": {
      "image": "https://iiif.digitalcommonwealth.org/iiif/2/commonwealth:js957744g",
      "x": 868,
      "y": 1252,
      "w": 1120,
      "h": 1120,
      "sha256": "3eae241663a2f25276bee8b7bb20235c9ade43b93da3180f2094304c34d3376d"
     },
     "affine_rms_m": 17.5,
     "map_scale_m_per_px": 0.7115,
     "simplify_tolerance_m": 1.78,
     "uncertainty_m": 20,
     "uncertainty_note": "Both 1834 sheets carry real anisotropic paper stretch, so a global affine cannot do better than tens of metres locally; the two 1834 sheets disagree about the forks by 58 m. Treat every vertex as +/-20 m. See docs/RESEARCH/datum_derivation.md."
    }
   }
  }
 ]
}
