{
 "type": "FeatureCollection",
 "_doc": "The shore of the Chicago River's mouth BEFORE the harbour cut, traced off the Harrison 1830 survey by tools/trace_shoreline_1830.py — the evidence behind the shoreline state `shore_1812_pre_cut` and, when its terrain is generated, the epoch e1830_natural. It is NOT the 1835 shore and may not be substituted for it: the 1833-34 cut, the piers and the harbour reach are all absent here because none of them existed when this sheet was drawn. Equally, the 1828 soldiers' channel the sheet letters is NOT carried forward — see `excluded`. Do not hand-edit: `--check` asserts this file is a fixed point of its tracer.",
 "source": "harrison_1830_river_mouth",
 "image_sha256": "548a4c5cdc9e71f2cad44a3eb1d617c421c7e653043f31e7045c44add1c1c4bc",
 "transform": {
  "image": "Internet Archive leaf n242 of historyofchicago01andr (Andreas, History of Chicago, vol. 1, p. 113)",
  "orientation": "rotated 90 degrees anticlockwise so the sheet's own true-north arrow stands vertical; 2715 x 2003 px in that orientation, +x east and +y south",
  "anchor_px": [
   1445,
   644
  ],
  "anchor_local_enu_m": [
   1152.0,
   221.0
  ],
  "scale_m_per_px": 0.33528,
  "stated_by": "T-0883, checked against this raster by T-0882 and again here"
 },
 "generated_by": "tools/trace_shoreline_1830.py",
 "excluded": {
  "soldiers_channel_1828": {
   "lettered": "Channel cut by the Soldiers in 1828",
   "why": "It is dated on the sheet's own face to sixteen years AFTER the state this trace serves. A shoreline state addressed to 15 August 1812 may not carry a channel the garrison dug in 1828."
  }
 },
 "known_defects": [
  "south_shore_pre_cut carries about 60 m of the 1828 soldiers' channel's WESTERN ENTRANCE, between the old channel and the cut box at x 1870. The box cannot be carried further west without severing the old channel from the main stem, which the seed test refuses; the arm itself, its east bank and the lake beyond it are all outside. Read the entrance as 1828 work, not as 1812 shore.",
  "Two short spurs remain where Harrison draws a hatched block ON the bank — the shop, and Craft's house and warehouse. They are as dense as a hachure field and they touch it, and the opening at `spur_r` takes the narrower ones only.",
  "The opening that removes those spurs also stands the line up to half its radius (5.2 m) off the bank on a tight convex bend. That is inside this trace's stated uncertainty and is not corrected by hand."
 ],
 "cuts": {
  "stockade": {
   "box_px": [
    1356,
    553,
    1535,
    730
   ],
   "why": "The fort's stockade is solid ink at a hachure field's density and stands on dry ground. It is cut by its own committed window rather than by a threshold, because a threshold that removed it would remove drawn shore with it."
  },
  "soldiers_channel_1828": {
   "box_px": [
    1870,
    690,
    2115,
    860
   ],
   "why": "The arm Harrison letters 'Channel cut by the Soldiers in 1828'. It is dated on the sheet's own face to sixteen years AFTER the state this trace serves, so the trace is cut across it and neither its banks nor the lake beyond it are published."
  },
  "old_mouth": {
   "box_px": [
    1560,
    1490,
    1790,
    1530
   ],
   "why": "The foot of the bar, beside the mouth Harrison letters 'very shallow'. The cut is what makes the lake a SEPARATE body from the old channel, so no lake edge can reach a named run: east of the bar the hachures thin and stop where the engraver's ruling pen stopped, not where Lake Michigan began, and this trace publishes none of it. The old channel's own west bank continues south of the cut to the foot of the sheet, and is published."
  }
 },
 "crs_note": "Coordinates are EPSG:26916 metres (UTM 16N, NAD83); local ENU metres are these minus data/datum.json origin_utm_e/origin_utm_n.",
 "features": [
  {
   "type": "Feature",
   "id": "south_shore_pre_cut",
   "properties": {
    "kind": "shore",
    "name": "South and east shore before the cut: the south bank of the main stem past Fort Dearborn, the reservation's lake shore, and the west bank of the old southward channel",
    "confidence": "inferred",
    "observed_date": "1830-02-24",
    "source_id": "harrison_1830_river_mouth",
    "anchor_px_distance": 47.9,
    "vertices": 72,
    "length_m": 688.8,
    "note": "This is the shore the 1833-34 harbour cut destroyed. It runs east along the main stem, turns south at the reservation where the bar deflected the river, and follows the old channel toward the mouth Harrison letters 'very shallow'. Graded inferred, not documented: the POSITION of each vertex is a measurement off a federal harbour survey, but the sheet readable here is Andreas's 1884 re-engraving of it, which says on its own face that it carries 'additions and changes suggested by the Memory of Early Settlers'."
   },
   "geometry": {
    "type": "LineString",
    "coordinates": [
     [
      448195.2,
      4637222.18
     ],
     [
      448190.17,
      4637248.66
     ],
     [
      448192.51,
      4637298.28
     ],
     [
      448194.19,
      4637302.98
     ],
     [
      448193.18,
      4637314.04
     ],
     [
      448194.19,
      4637317.06
     ],
     [
      448196.87,
      4637319.41
     ],
     [
      448197.88,
      4637339.52
     ],
     [
      448195.2,
      4637343.21
     ],
     [
      448175.41,
      4637342.54
     ],
     [
      448172.4,
      4637343.55
     ],
     [
      448170.38,
      4637347.57
     ],
     [
      448173.4,
      4637352.93
     ],
     [
      448173.74,
      4637360.65
     ],
     [
      448166.7,
      4637363.66
     ],
     [
      448164.35,
      4637366.68
     ],
     [
      448164.35,
      4637370.03
     ],
     [
      448167.7,
      4637373.39
     ],
     [
      448175.08,
      4637374.06
     ],
     [
      448178.1,
      4637371.04
     ],
     [
      448177.43,
      4637362.99
     ],
     [
      448191.51,
      4637357.63
     ],
     [
      448197.88,
      4637358.97
     ],
     [
      448204.92,
      4637357.96
     ],
     [
      448212.97,
      4637370.37
     ],
     [
      448238.45,
      4637398.53
     ],
     [
      448251.19,
      4637415.3
     ],
     [
      448255.55,
      4637424.01
     ],
     [
      448258.9,
      4637444.13
     ],
     [
      448267.62,
      4637455.87
     ],
     [
      448266.61,
      4637461.23
     ],
     [
      448267.62,
      4637464.25
     ],
     [
      448269.96,
      4637465.92
     ],
     [
      448276.0,
      4637466.93
     ],
     [
      448285.72,
      4637475.31
     ],
     [
      448299.13,
      4637495.76
     ],
     [
      448306.51,
      4637512.53
     ],
     [
      448308.86,
      4637514.2
     ],
     [
      448312.54,
      4637514.2
     ],
     [
      448315.9,
      4637510.52
     ],
     [
      448319.25,
      4637509.51
     ],
     [
      448322.6,
      4637504.48
     ],
     [
      448325.28,
      4637504.48
     ],
     [
      448327.63,
      4637507.83
     ],
     [
      448327.63,
      4637510.85
     ],
     [
      448323.94,
      4637512.19
     ],
     [
      448321.6,
      4637516.55
     ],
     [
      448324.28,
      4637521.58
     ],
     [
      448332.66,
      4637522.25
     ],
     [
      448337.02,
      4637524.6
     ],
     [
      448341.04,
      4637522.59
     ],
     [
      448342.72,
      4637517.22
     ],
     [
      448346.41,
      4637517.22
     ],
     [
      448353.78,
      4637521.92
     ],
     [
      448352.44,
      4637534.32
     ],
     [
      448348.08,
      4637534.32
     ],
     [
      448345.4,
      4637528.62
     ],
     [
      448339.37,
      4637524.6
     ],
     [
      448335.34,
      4637526.61
     ],
     [
      448333.33,
      4637532.98
     ],
     [
      448330.65,
      4637534.32
     ],
     [
      448323.27,
      4637533.65
     ],
     [
      448320.25,
      4637536.67
     ],
     [
      448319.25,
      4637554.77
     ],
     [
      448316.57,
      4637568.85
     ],
     [
      448317.91,
      4637600.37
     ],
     [
      448312.88,
      4637611.77
     ],
     [
      448314.89,
      4637618.48
     ],
     [
      448308.52,
      4637617.47
     ],
     [
      448305.5,
      4637618.48
     ],
     [
      448300.14,
      4637627.53
     ],
     [
      448283.04,
      4637641.61
     ]
    ]
   }
  },
  {
   "type": "Feature",
   "id": "north_shore_pre_cut",
   "properties": {
    "kind": "shore",
    "name": "North shore before the cut: the north bank of the main stem opposite the fort, and the lake shore north of the old mouth",
    "confidence": "inferred",
    "observed_date": "1830-02-24",
    "source_id": "harrison_1830_river_mouth",
    "anchor_px_distance": 16.0,
    "vertices": 130,
    "length_m": 999.1,
    "note": "The north bank of the main stem, the Kinzie side. Same grade and the same reason as the south shore; the reach east of the old mouth is where this sheet's hachure field thins, and no vertex is published past the last one the engraver drew a line under."
   },
   "geometry": {
    "type": "LineString",
    "coordinates": [
     [
      448195.53,
      4637651.67
     ],
     [
      448183.8,
      4637651.0
     ],
     [
      448181.45,
      4637652.67
     ],
     [
      448180.11,
      4637656.7
     ],
     [
      448176.08,
      4637656.7
     ],
     [
      448172.06,
      4637654.35
     ],
     [
      448172.73,
      4637648.99
     ],
     [
      448170.38,
      4637644.63
     ],
     [
      448165.69,
      4637643.96
     ],
     [
      448163.34,
      4637645.63
     ],
     [
      448162.34,
      4637648.65
     ],
     [
      448158.31,
      4637648.65
     ],
     [
      448153.62,
      4637646.3
     ],
     [
      448137.53,
      4637632.89
     ],
     [
      448127.13,
      4637621.16
     ],
     [
      448122.77,
      4637614.79
     ],
     [
      448122.77,
      4637611.77
     ],
     [
      448125.46,
      4637607.08
     ],
     [
      448124.45,
      4637604.06
     ],
     [
      448113.72,
      4637588.97
     ],
     [
      448103.66,
      4637570.87
     ],
     [
      448088.91,
      4637552.43
     ],
     [
      448086.23,
      4637547.73
     ],
     [
      448085.22,
      4637541.36
     ],
     [
      448081.54,
      4637538.01
     ],
     [
      448070.81,
      4637521.58
     ],
     [
      448067.79,
      4637520.57
     ],
     [
      448064.77,
      4637521.58
     ],
     [
      448062.42,
      4637526.94
     ],
     [
      448050.35,
      4637528.29
     ],
     [
      448045.66,
      4637534.99
     ],
     [
      448038.28,
      4637535.66
     ],
     [
      448030.91,
      4637533.32
     ],
     [
      448027.89,
      4637534.32
     ],
     [
      448026.21,
      4637536.67
     ],
     [
      448026.21,
      4637542.7
     ],
     [
      448021.52,
      4637545.05
     ],
     [
      448019.51,
      4637549.07
     ],
     [
      448020.51,
      4637552.09
     ],
     [
      448034.93,
      4637568.85
     ],
     [
      448048.68,
      4637580.93
     ],
     [
      448064.1,
      4637606.74
     ],
     [
      448075.5,
      4637629.54
     ],
     [
      448099.98,
      4637653.35
     ],
     [
      448116.4,
      4637666.76
     ],
     [
      448120.09,
      4637666.76
     ],
     [
      448123.45,
      4637663.4
     ],
     [
      448126.8,
      4637663.74
     ],
     [
      448129.48,
      4637666.76
     ],
     [
      448128.47,
      4637672.79
     ],
     [
      448129.48,
      4637676.14
     ],
     [
      448136.86,
      4637680.84
     ],
     [
      448150.27,
      4637685.53
     ],
     [
      448154.96,
      4637683.52
     ],
     [
      448156.3,
      4637678.16
     ],
     [
      448159.32,
      4637678.16
     ],
     [
      448164.68,
      4637680.84
     ],
     [
      448170.38,
      4637680.84
     ],
     [
      448172.06,
      4637687.21
     ],
     [
      448169.04,
      4637689.22
     ],
     [
      448168.04,
      4637692.24
     ],
     [
      448172.4,
      4637700.96
     ],
     [
      448172.06,
      4637709.34
     ],
     [
      448174.07,
      4637712.02
     ],
     [
      448181.78,
      4637716.38
     ],
     [
      448184.8,
      4637715.37
     ],
     [
      448188.83,
      4637711.35
     ],
     [
      448192.51,
      4637700.96
     ],
     [
      448191.51,
      4637697.94
     ],
     [
      448187.48,
      4637695.26
     ],
     [
      448187.82,
      4637685.53
     ],
     [
      448184.13,
      4637679.16
     ],
     [
      448185.14,
      4637671.45
     ],
     [
      448193.52,
      4637671.12
     ],
     [
      448197.21,
      4637672.79
     ],
     [
      448208.27,
      4637671.45
     ],
     [
      448209.28,
      4637674.47
     ],
     [
      448213.3,
      4637676.48
     ],
     [
      448216.32,
      4637675.47
     ],
     [
      448218.33,
      4637672.12
     ],
     [
      448224.36,
      4637667.43
     ],
     [
      448229.39,
      4637667.09
     ],
     [
      448231.41,
      4637676.14
     ],
     [
      448235.43,
      4637678.16
     ],
     [
      448239.79,
      4637675.47
     ],
     [
      448245.49,
      4637674.47
     ],
     [
      448247.83,
      4637671.79
     ],
     [
      448252.53,
      4637671.45
     ],
     [
      448251.86,
      4637684.53
     ],
     [
      448249.51,
      4637690.56
     ],
     [
      448242.81,
      4637691.23
     ],
     [
      448238.45,
      4637689.22
     ],
     [
      448235.43,
      4637690.23
     ],
     [
      448233.42,
      4637693.24
     ],
     [
      448232.75,
      4637696.93
     ],
     [
      448233.75,
      4637699.95
     ],
     [
      448242.13,
      4637703.3
     ],
     [
      448255.88,
      4637703.3
     ],
     [
      448262.92,
      4637704.64
     ],
     [
      448290.75,
      4637699.28
     ],
     [
      448292.43,
      4637696.93
     ],
     [
      448292.43,
      4637693.58
     ],
     [
      448290.75,
      4637691.23
     ],
     [
      448285.39,
      4637688.21
     ],
     [
      448282.37,
      4637680.5
     ],
     [
      448282.37,
      4637677.49
     ],
     [
      448283.71,
      4637676.48
     ],
     [
      448290.08,
      4637677.82
     ],
     [
      448298.13,
      4637676.48
     ],
     [
      448300.14,
      4637678.16
     ],
     [
      448301.48,
      4637684.86
     ],
     [
      448297.79,
      4637691.57
     ],
     [
      448299.8,
      4637695.59
     ],
     [
      448304.5,
      4637696.26
     ],
     [
      448312.88,
      4637692.57
     ],
     [
      448320.59,
      4637685.53
     ],
     [
      448327.97,
      4637684.53
     ],
     [
      448336.01,
      4637678.16
     ],
     [
      448350.43,
      4637672.12
     ],
     [
      448352.78,
      4637667.76
     ],
     [
      448355.79,
      4637665.42
     ],
     [
      448357.81,
      4637660.72
     ],
     [
      448365.52,
      4637660.39
     ],
     [
      448373.9,
      4637653.01
     ],
     [
      448375.24,
      4637647.31
     ],
     [
      448379.6,
      4637639.6
     ],
     [
      448381.95,
      4637630.55
     ],
     [
      448381.95,
      4637617.81
     ],
     [
      448384.63,
      4637610.09
     ],
     [
      448383.62,
      4637605.74
     ]
    ]
   }
  }
 ]
}
