{
 "type": "FeatureCollection",
 "name": "e1834_harbor_cut branches",
 "crs": {
  "type": "name",
  "properties": {
   "name": "urn:ogc:def:crs:EPSG::26916"
  }
 },
 "_doc": "Water polygon and bank lines for the Chicago River's branches OUTSIDE the forks window traced by tools/trace_river.py \u2014 today the South Branch from that window's south edge to the sheet's south margin. Coordinates are EPSG:26916 metres (UTM 16N, NAD83); local ENU metres used by the scene are these minus data/datum.json origin_utm_e / origin_utm_n. Generated by tools/trace_south_branch.py \u2014 do not hand-edit.",
 "features": [
  {
   "type": "Feature",
   "id": "south_branch_school_section",
   "geometry": {
    "type": "Polygon",
    "coordinates": [
     [
      [
       447064.63,
       4636989.83
      ],
      [
       447108.62,
       4636990.74
      ],
      [
       447097.97000000003,
       4636902.109999999
      ],
      [
       447089.81,
       4636864.99
      ],
      [
       447094.12,
       4636846.24
      ],
      [
       447083.03,
       4636830.79
      ],
      [
       447078.93,
       4636815.49
      ],
      [
       447094.55,
       4636773.06
      ],
      [
       447096.77,
       4636752.81
      ],
      [
       447087.19,
       4636718.56
      ],
      [
       447090.16000000003,
       4636689.63
      ],
      [
       447085.36,
       4636674.31
      ],
      [
       447079.99,
       4636637.97
      ],
      [
       447082.29000000004,
       4636602.51
      ],
      [
       447092.94,
       4636574.47
      ],
      [
       447109.85000000003,
       4636548.7299999995
      ],
      [
       447122.58,
       4636522.18
      ],
      [
       447124.82,
       4636498.31
      ],
      [
       447136.22000000003,
       4636460.14
      ],
      [
       447143.44,
       4636418.99
      ],
      [
       447158.35000000003,
       4636377.99
      ],
      [
       447159.13,
       4636364.24
      ],
      [
       447152.39,
       4636324.24
      ],
      [
       447152.5,
       4636305.399999999
      ],
      [
       447156.81,
       4636284.4799999995
      ],
      [
       447180.9,
       4636227.0
      ],
      [
       447202.08,
       4636189.03
      ],
      [
       447219.91000000003,
       4636126.359999999
      ],
      [
       447260.09,
       4636062.6899999995
      ],
      [
       447274.86,
       4636045.609999999
      ],
      [
       447286.91000000003,
       4636016.149999999
      ],
      [
       447294.2,
       4635964.12
      ],
      [
       447293.69,
       4635932.95
      ],
      [
       447298.25,
       4635870.0
      ],
      [
       447322.0,
       4635752.37
      ],
      [
       447331.11,
       4635628.649999999
      ],
      [
       447341.94,
       4635569.45
      ],
      [
       447344.92,
       4635537.62
      ],
      [
       447355.55,
       4635511.03
      ],
      [
       447376.0,
       4635478.12
      ],
      [
       447384.57,
       4635447.14
      ],
      [
       447386.77,
       4635428.34
      ],
      [
       447408.18,
       4635351.97
      ],
      [
       447411.39,
       4635281.75
      ],
      [
       447407.25,
       4635272.96
      ],
      [
       447398.21,
       4635266.9799999995
      ],
      [
       447389.18,
       4635258.819999999
      ],
      [
       447382.26,
       4635247.09
      ],
      [
       447375.28,
       4635246.22
      ],
      [
       447370.37,
       4635251.1899999995
      ],
      [
       447351.34,
       4635397.899999999
      ],
      [
       447328.52,
       4635477.14
      ],
      [
       447303.07,
       4635528.79
      ],
      [
       447297.38,
       4635546.06
      ],
      [
       447288.58,
       4635616.899999999
      ],
      [
       447283.21,
       4635698.67
      ],
      [
       447275.91000000003,
       4635750.7
      ],
      [
       447253.02,
       4635842.9799999995
      ],
      [
       447254.15,
       4635887.93
      ],
      [
       447243.04000000004,
       4635994.22
      ],
      [
       447220.39,
       4636044.4799999995
      ],
      [
       447178.15,
       4636102.31
      ],
      [
       447159.72000000003,
       4636148.3
      ],
      [
       447120.19,
       4636218.5
      ],
      [
       447112.36,
       4636242.9799999995
      ],
      [
       447112.27,
       4636258.1899999995
      ],
      [
       447105.79000000004,
       4636291.39
      ],
      [
       447105.65,
       4636316.03
      ],
      [
       447113.02,
       4636367.63
      ],
      [
       447093.75,
       4636436.8
      ],
      [
       447093.57,
       4636467.2299999995
      ],
      [
       447070.11,
       4636537.76
      ],
      [
       447041.91000000003,
       4636582.83
      ],
      [
       447034.71,
       4636618.1899999995
      ],
      [
       447038.55,
       4636676.97
      ],
      [
       447045.39,
       4636701.02
      ],
      [
       447043.12,
       4636730.6899999995
      ],
      [
       447050.02,
       4636746.05
      ],
      [
       447051.31,
       4636762.74
      ],
      [
       447045.61,
       4636781.47
      ],
      [
       447031.52,
       4636802.1899999995
      ],
      [
       447029.36,
       4636814.46
      ],
      [
       447042.53,
       4636830.68
      ],
      [
       447047.35000000003,
       4636842.37
      ],
      [
       447045.84,
       4636860.46
      ],
      [
       447049.26,
       4636872.85
      ],
      [
       447050.51,
       4636897.51
      ],
      [
       447059.43,
       4636923.78
      ],
      [
       447056.49,
       4636949.09
      ],
      [
       447060.61,
       4636960.76
      ],
      [
       447064.63,
       4636989.83
      ]
     ]
    ]
   },
   "properties": {
    "kind": "water",
    "name": "Chicago River, South Branch \u2014 Original Town to the School Section's south line",
    "reaches": [
     "south_branch"
    ],
    "water_surface_ft_above_datum": 0.0,
    "confidence": "inferred",
    "note": "Planform traced from the Wright 1834 survey, in a window whose north edge is the forks window's south edge, so this polygon abuts river.geojson on map row 2372 of the BPL master and moves no vertex of it. The water surface is flat at the datum for the same reason the forks are: the pre-reversal river had a near-zero surface gradient and stood at lake level through this reach. NO BED DEPTH IS CLAIMED HERE AT ALL. A cadastral plat gives planform and not soundings, and a traced bank must not be allowed to promote a bed \u2014 see docs/RESEARCH/south_branch_school_section.md. The polygon's southern edge is the LIMIT OF THE SURVEY and not a river end: Wright's wash runs into the School Section's south boundary line and stops on it, and the two bank lines are cut short of that stretch rather than carried across it. The manuscript tear the NARA reproduction's caption reports near the sheet's lower centre is not present on this scan: the BPL master draws both banks unbroken past reserved blocks 87 and 88, so no reach of this trace is graded down for it and no gap is boxed.",
    "drafted_width_m": {
     "south_branch": 49.7
    },
    "sources": [
     "wright_1834"
    ],
    "provenance": {
     "traced_from": "wright_1834",
     "method": "grey bank-wash segmentation of the BPL master scan, closed across the unshaded mid-channel; boundary traced and simplified; pixels transformed to EPSG:26916 by the least-squares affine refit from data/traces/gcp/wright_1834_gcps.json. The hue reference is read off a smaller block at a lower percentile than the forks trace uses, so that the School Section's yellow reservation wash cannot stand in for paper",
     "tool": "tools/trace_south_branch.py",
     "splices_onto": "data/terrain/epochs/e1834_harbor_cut/river.geojson at BPL master row 2372",
     "iiif_region": {
      "image": "https://iiif.digitalcommonwealth.org/iiif/2/commonwealth:js957744g",
      "x": 1150,
      "y": 2372,
      "w": 800,
      "h": 2578,
      "sha256": "2f542115f0787d406f49aee0c3ebd0f78bfd05e3f5767f6892b7635312fcf8ec"
     },
     "affine_rms_m": 17.5,
     "map_scale_m_per_px": 0.7115,
     "simplify_tolerance_m": 1.78,
     "uncertainty_m": 20,
     "uncertainty_note": "Both 1834 sheets carry real anisotropic paper stretch, so a global affine cannot do better than tens of metres locally; the two 1834 sheets disagree about the forks by 58 m. Treat every vertex as +/-20 m. See docs/RESEARCH/datum_derivation.md."
    }
   }
  },
  {
   "type": "Feature",
   "id": "south_branch_west_bank",
   "geometry": {
    "type": "LineString",
    "coordinates": [
     [
      447375.28,
      4635246.22
     ],
     [
      447370.37,
      4635251.1899999995
     ],
     [
      447351.34,
      4635397.899999999
     ],
     [
      447328.52,
      4635477.14
     ],
     [
      447303.07,
      4635528.79
     ],
     [
      447297.38,
      4635546.06
     ],
     [
      447288.58,
      4635616.899999999
     ],
     [
      447283.21,
      4635698.67
     ],
     [
      447275.91000000003,
      4635750.7
     ],
     [
      447253.02,
      4635842.9799999995
     ],
     [
      447254.15,
      4635887.93
     ],
     [
      447243.04000000004,
      4635994.22
     ],
     [
      447220.39,
      4636044.4799999995
     ],
     [
      447178.15,
      4636102.31
     ],
     [
      447159.72000000003,
      4636148.3
     ],
     [
      447120.19,
      4636218.5
     ],
     [
      447112.36,
      4636242.9799999995
     ],
     [
      447112.27,
      4636258.1899999995
     ],
     [
      447105.79000000004,
      4636291.39
     ],
     [
      447105.65,
      4636316.03
     ],
     [
      447113.02,
      4636367.63
     ],
     [
      447093.75,
      4636436.8
     ],
     [
      447093.57,
      4636467.2299999995
     ],
     [
      447070.11,
      4636537.76
     ],
     [
      447041.91000000003,
      4636582.83
     ],
     [
      447034.71,
      4636618.1899999995
     ],
     [
      447038.55,
      4636676.97
     ],
     [
      447045.39,
      4636701.02
     ],
     [
      447043.12,
      4636730.6899999995
     ],
     [
      447050.02,
      4636746.05
     ],
     [
      447051.31,
      4636762.74
     ],
     [
      447045.61,
      4636781.47
     ],
     [
      447031.52,
      4636802.1899999995
     ],
     [
      447029.36,
      4636814.46
     ],
     [
      447042.53,
      4636830.68
     ],
     [
      447047.35000000003,
      4636842.37
     ],
     [
      447045.84,
      4636860.46
     ],
     [
      447049.26,
      4636872.85
     ],
     [
      447050.51,
      4636897.51
     ],
     [
      447059.43,
      4636923.78
     ],
     [
      447056.49,
      4636949.09
     ],
     [
      447060.61,
      4636960.76
     ],
     [
      447064.63,
      4636989.83
     ]
    ]
   },
   "properties": {
    "kind": "bank",
    "name": "West bank of the South Branch: the Original Town west of Market Street, and the School Section's blocks 69-71 and 78",
    "crest_ft_above_datum": null,
    "confidence": "inferred",
    "note": "Bank line is the water polygon's boundary where it is neither the splice row this window's north edge stands on nor the survey limit its south end stops on. Crest heights are not carried here: south of the modelled terrain box there is no heightfield for them to belong to yet.",
    "sources": [
     "wright_1834"
    ]
   }
  },
  {
   "type": "Feature",
   "id": "south_branch_east_bank",
   "geometry": {
    "type": "LineString",
    "coordinates": [
     [
      447108.62,
      4636990.74
     ],
     [
      447097.97000000003,
      4636902.109999999
     ],
     [
      447089.81,
      4636864.99
     ],
     [
      447094.12,
      4636846.24
     ],
     [
      447083.03,
      4636830.79
     ],
     [
      447078.93,
      4636815.49
     ],
     [
      447094.55,
      4636773.06
     ],
     [
      447096.77,
      4636752.81
     ],
     [
      447087.19,
      4636718.56
     ],
     [
      447090.16000000003,
      4636689.63
     ],
     [
      447085.36,
      4636674.31
     ],
     [
      447079.99,
      4636637.97
     ],
     [
      447082.29000000004,
      4636602.51
     ],
     [
      447092.94,
      4636574.47
     ],
     [
      447109.85000000003,
      4636548.7299999995
     ],
     [
      447122.58,
      4636522.18
     ],
     [
      447124.82,
      4636498.31
     ],
     [
      447136.22000000003,
      4636460.14
     ],
     [
      447143.44,
      4636418.99
     ],
     [
      447158.35000000003,
      4636377.99
     ],
     [
      447159.13,
      4636364.24
     ],
     [
      447152.39,
      4636324.24
     ],
     [
      447152.5,
      4636305.399999999
     ],
     [
      447156.81,
      4636284.4799999995
     ],
     [
      447180.9,
      4636227.0
     ],
     [
      447202.08,
      4636189.03
     ],
     [
      447219.91000000003,
      4636126.359999999
     ],
     [
      447260.09,
      4636062.6899999995
     ],
     [
      447274.86,
      4636045.609999999
     ],
     [
      447286.91000000003,
      4636016.149999999
     ],
     [
      447294.2,
      4635964.12
     ],
     [
      447293.69,
      4635932.95
     ],
     [
      447298.25,
      4635870.0
     ],
     [
      447322.0,
      4635752.37
     ],
     [
      447331.11,
      4635628.649999999
     ],
     [
      447341.94,
      4635569.45
     ],
     [
      447344.92,
      4635537.62
     ],
     [
      447355.55,
      4635511.03
     ],
     [
      447376.0,
      4635478.12
     ],
     [
      447384.57,
      4635447.14
     ],
     [
      447386.77,
      4635428.34
     ],
     [
      447408.18,
      4635351.97
     ],
     [
      447411.39,
      4635281.75
     ],
     [
      447407.25,
      4635272.96
     ],
     [
      447398.21,
      4635266.9799999995
     ],
     [
      447389.18,
      4635258.819999999
     ],
     [
      447382.26,
      4635247.09
     ]
    ]
   },
   "properties": {
    "kind": "bank",
    "name": "East bank of the South Branch: the Original Town west of Wells Street, and the School Section's blocks 83-88",
    "crest_ft_above_datum": null,
    "confidence": "inferred",
    "note": "Bank line is the water polygon's boundary where it is neither the splice row this window's north edge stands on nor the survey limit its south end stops on. Crest heights are not carried here: south of the modelled terrain box there is no heightfield for them to belong to yet.",
    "sources": [
     "wright_1834"
    ]
   }
  }
 ]
}
