{
 "type": "FeatureCollection",
 "name": "e1834_harbor_cut river",
 "crs": {
  "type": "name",
  "properties": {
   "name": "urn:ogc:def:crs:EPSG::26916"
  }
 },
 "_doc": "Water polygon and bank lines for the Chicago River forks, terrain epoch e1834_harbor_cut. Coordinates are EPSG:26916 metres (UTM 16N, NAD83). Local ENU metres used by the scene are these minus data/datum.json origin_utm_e / origin_utm_n. Generated by tools/trace_river.py \u2014 do not hand-edit.",
 "features": [
  {
   "type": "Feature",
   "id": "chicago_river_forks",
   "geometry": {
    "type": "Polygon",
    "coordinates": [
     [
      [
       446858.01,
       4637797.18
      ],
      [
       446943.89,
       4637798.95
      ],
      [
       446949.58,
       4637781.68
      ],
      [
       446999.48000000004,
       4637729.81
      ],
      [
       447007.28,
       4637709.68
      ],
      [
       447015.73000000004,
       4637698.26
      ],
      [
       447028.58,
       4637650.7
      ],
      [
       447030.88,
       4637615.96
      ],
      [
       447042.49,
       4637542.29
      ],
      [
       447035.26,
       4637466.05
      ],
      [
       447038.95,
       4637433.51
      ],
      [
       447048.81,
       4637419.2299999995
      ],
      [
       447056.60000000003,
       4637400.55
      ],
      [
       447075.55,
       4637384.27
      ],
      [
       447088.84,
       4637382.37
      ],
      [
       447106.96,
       4637387.819999999
      ],
      [
       447117.37,
       4637398.18
      ],
      [
       447158.44,
       4637421.49
      ],
      [
       447197.37,
       4637452.01
      ],
      [
       447204.31,
       4637459.39
      ],
      [
       447211.9,
       4637474.77
      ],
      [
       447229.25,
       4637492.52
      ],
      [
       447237.53,
       4637510.08
      ],
      [
       447239.55,
       4637522.4399999995
      ],
      [
       447234.56,
       4637539.7299999995
      ],
      [
       447238.01,
       4637545.6
      ],
      [
       447265.26,
       4637544.71
      ],
      [
       447281.42,
       4637526.93
      ],
      [
       447302.43,
       4637517.9399999995
      ],
      [
       447317.09,
       4637518.97
      ],
      [
       447374.41000000003,
       4637509.29
      ],
      [
       447462.44,
       4637503.859999999
      ],
      [
       447462.82,
       4637439.37
      ],
      [
       447380.42,
       4637438.39
      ],
      [
       447304.4,
       4637420.88
      ],
      [
       447242.39,
       4637397.14
      ],
      [
       447200.66000000003,
       4637368.01
      ],
      [
       447192.34,
       4637358.42
      ],
      [
       447185.46,
       4637340.16
      ],
      [
       447159.18,
       4637296.87
      ],
      [
       447144.82,
       4637245.84
      ],
      [
       447135.85000000003,
       4637227.54
      ],
      [
       447133.2,
       4637202.12
      ],
      [
       447125.68,
       4637175.16
      ],
      [
       447118.39,
       4637109.79
      ],
      [
       447119.84,
       4637100.399999999
      ],
      [
       447115.29000000004,
       4637043.78
      ],
      [
       447108.62,
       4636991.47
      ],
      [
       447064.62,
       4636990.56
      ],
      [
       447068.61,
       4637025.42
      ],
      [
       447066.44,
       4637037.7
      ],
      [
       447055.88,
       4637052.7
      ],
      [
       447043.97000000003,
       4637057.52
      ],
      [
       447027.91000000003,
       4637057.1899999995
      ],
      [
       447013.28,
       4637052.54
      ],
      [
       447002.86,
       4637042.18
      ],
      [
       446997.38,
       4637024.68
      ],
      [
       446991.81,
       4637020.9399999995
      ],
      [
       446949.91000000003,
       4637021.52
      ],
      [
       446934.41000000003,
       4637043.67
      ],
      [
       446917.62,
       4637049.12
      ],
      [
       446900.2,
       4637042.96
      ],
      [
       446887.05,
       4637023.12
      ],
      [
       446877.27,
       4637023.649999999
      ],
      [
       446874.46,
       4637026.49
      ],
      [
       446878.53,
       4637046.859999999
      ],
      [
       446874.93,
       4637064.18
      ],
      [
       446874.82,
       4637083.02
      ],
      [
       446881.05,
       4637092.569999999
      ],
      [
       446901.95,
       4637100.24
      ],
      [
       446913.75,
       4637112.08
      ],
      [
       446934.67,
       4637117.59
      ],
      [
       446945.78,
       4637129.41
      ],
      [
       446952.06,
       4637129.54
      ],
      [
       446960.47000000003,
       4637123.92
      ],
      [
       446971.66000000003,
       4637121.97
      ],
      [
       446982.12,
       4637124.359999999
      ],
      [
       446998.11,
       4637136.29
      ],
      [
       447054.68,
       4637136.7299999995
      ],
      [
       447069.28,
       4637147.899999999
      ],
      [
       447074.09,
       4637160.319999999
      ],
      [
       447075.32,
       4637189.33
      ],
      [
       447085.99,
       4637274.34
      ],
      [
       447081.7,
       4637289.47
      ],
      [
       447073.27,
       4637298.71
      ],
      [
       447029.11,
       4637326.06
      ],
      [
       447010.14,
       4637345.24
      ],
      [
       446978.4,
       4637397.4799999995
      ],
      [
       446970.4,
       4637452.39
      ],
      [
       446968.68,
       4637505.9799999995
      ],
      [
       446971.93,
       4637547.35
      ],
      [
       446964.69,
       4637589.2299999995
      ],
      [
       446963.09,
       4637623.9799999995
      ],
      [
       446950.9,
       4637678.08
      ],
      [
       446939.59,
       4637700.31
      ],
      [
       446925.54000000004,
       4637715.24
      ],
      [
       446907.21,
       4637743.12
      ],
      [
       446880.51,
       4637771.55
      ],
      [
       446866.48000000004,
       4637781.41
      ],
      [
       446858.01,
       4637797.18
      ]
     ]
    ]
   },
   "properties": {
    "kind": "water",
    "name": "Chicago River \u2014 the forks",
    "reaches": [
     "main_stem",
     "north_branch",
     "south_branch"
    ],
    "water_surface_ft_above_datum": 0.0,
    "confidence": "inferred",
    "note": "Planform traced from the Wright 1834 survey; the water surface is flat at the datum because the pre-reversal river had a near-zero surface gradient and stood at lake level through the whole downtown reach. Planform is as drafted on a cadastral plat, not a hydrographic survey \u2014 see drafted_width_m below and docs/RESEARCH/terrain_forks.md.",
    "drafted_width_m": {
     "north_branch": 72.9,
     "main_stem": 69.7,
     "south_branch": 57.4
    },
    "sources": [
     "wright_1834",
     "wikipedia_chicago_river"
    ],
    "provenance": {
     "traced_from": "wright_1834",
     "method": "grey bank-wash segmentation of the BPL master scan, closed across the unshaded mid-channel; boundary traced and simplified; pixels transformed to EPSG:26916 by the least-squares affine refit from data/traces/gcp/wright_1834_gcps.json",
     "tool": "tools/trace_river.py",
     "iiif_region": {
      "image": "https://iiif.digitalcommonwealth.org/iiif/2/commonwealth:js957744g",
      "x": 868,
      "y": 1252,
      "w": 1120,
      "h": 1120,
      "sha256": "23e14995db4925d9b4dbbd98b8531d77195e18b05a30bb65ae78e1d140e18563"
     },
     "affine_rms_m": 17.5,
     "map_scale_m_per_px": 0.7115,
     "simplify_tolerance_m": 1.78,
     "uncertainty_m": 20,
     "uncertainty_note": "Both 1834 sheets carry real anisotropic paper stretch, so a global affine cannot do better than tens of metres locally; the two 1834 sheets disagree about the forks by 58 m. Treat every vertex as +/-20 m. See docs/RESEARCH/datum_derivation.md."
    }
   }
  },
  {
   "type": "Feature",
   "id": "west_division_shore",
   "geometry": {
    "type": "LineString",
    "coordinates": [
     [
      447064.62,
      4636990.56
     ],
     [
      447068.61,
      4637025.42
     ],
     [
      447066.44,
      4637037.7
     ],
     [
      447055.88,
      4637052.7
     ],
     [
      447043.97000000003,
      4637057.52
     ],
     [
      447027.91000000003,
      4637057.1899999995
     ],
     [
      447013.28,
      4637052.54
     ],
     [
      447002.86,
      4637042.18
     ],
     [
      446997.38,
      4637024.68
     ],
     [
      446991.81,
      4637020.9399999995
     ],
     [
      446949.91000000003,
      4637021.52
     ],
     [
      446934.41000000003,
      4637043.67
     ],
     [
      446917.62,
      4637049.12
     ],
     [
      446900.2,
      4637042.96
     ],
     [
      446887.05,
      4637023.12
     ],
     [
      446877.27,
      4637023.649999999
     ],
     [
      446874.46,
      4637026.49
     ],
     [
      446878.53,
      4637046.859999999
     ],
     [
      446874.93,
      4637064.18
     ],
     [
      446874.82,
      4637083.02
     ],
     [
      446881.05,
      4637092.569999999
     ],
     [
      446901.95,
      4637100.24
     ],
     [
      446913.75,
      4637112.08
     ],
     [
      446934.67,
      4637117.59
     ],
     [
      446945.78,
      4637129.41
     ],
     [
      446952.06,
      4637129.54
     ],
     [
      446960.47000000003,
      4637123.92
     ],
     [
      446971.66000000003,
      4637121.97
     ],
     [
      446982.12,
      4637124.359999999
     ],
     [
      446998.11,
      4637136.29
     ],
     [
      447054.68,
      4637136.7299999995
     ],
     [
      447069.28,
      4637147.899999999
     ],
     [
      447074.09,
      4637160.319999999
     ],
     [
      447075.32,
      4637189.33
     ],
     [
      447085.99,
      4637274.34
     ],
     [
      447081.7,
      4637289.47
     ],
     [
      447073.27,
      4637298.71
     ],
     [
      447029.11,
      4637326.06
     ],
     [
      447010.14,
      4637345.24
     ],
     [
      446978.4,
      4637397.4799999995
     ],
     [
      446970.4,
      4637452.39
     ],
     [
      446968.68,
      4637505.9799999995
     ],
     [
      446971.93,
      4637547.35
     ],
     [
      446964.69,
      4637589.2299999995
     ],
     [
      446963.09,
      4637623.9799999995
     ],
     [
      446950.9,
      4637678.08
     ],
     [
      446939.59,
      4637700.31
     ],
     [
      446925.54000000004,
      4637715.24
     ],
     [
      446907.21,
      4637743.12
     ],
     [
      446880.51,
      4637771.55
     ],
     [
      446866.48000000004,
      4637781.41
     ],
     [
      446858.01,
      4637797.18
     ]
    ]
   },
   "properties": {
    "kind": "bank",
    "name": "West Division shore at Wolf Point: west bank of the North Branch and west bank of the South Branch",
    "crest_ft_above_datum": null,
    "confidence": "inferred",
    "note": "Bank line is the water polygon's boundary where it is not the edge of the traced window. Crest heights are carried in the heightfield spec, not here, because they come from narrative feet and not from the map.",
    "sources": [
     "wright_1834"
    ]
   }
  },
  {
   "type": "Feature",
   "id": "north_division_shore",
   "geometry": {
    "type": "LineString",
    "coordinates": [
     [
      446943.89,
      4637798.95
     ],
     [
      446949.58,
      4637781.68
     ],
     [
      446999.48000000004,
      4637729.81
     ],
     [
      447007.28,
      4637709.68
     ],
     [
      447015.73000000004,
      4637698.26
     ],
     [
      447028.58,
      4637650.7
     ],
     [
      447030.88,
      4637615.96
     ],
     [
      447042.49,
      4637542.29
     ],
     [
      447035.26,
      4637466.05
     ],
     [
      447038.95,
      4637433.51
     ],
     [
      447048.81,
      4637419.2299999995
     ],
     [
      447056.60000000003,
      4637400.55
     ],
     [
      447075.55,
      4637384.27
     ],
     [
      447088.84,
      4637382.37
     ],
     [
      447106.96,
      4637387.819999999
     ],
     [
      447117.37,
      4637398.18
     ],
     [
      447158.44,
      4637421.49
     ],
     [
      447197.37,
      4637452.01
     ],
     [
      447204.31,
      4637459.39
     ],
     [
      447211.9,
      4637474.77
     ],
     [
      447229.25,
      4637492.52
     ],
     [
      447237.53,
      4637510.08
     ],
     [
      447239.55,
      4637522.4399999995
     ],
     [
      447234.56,
      4637539.7299999995
     ],
     [
      447238.01,
      4637545.6
     ],
     [
      447265.26,
      4637544.71
     ],
     [
      447281.42,
      4637526.93
     ],
     [
      447302.43,
      4637517.9399999995
     ],
     [
      447317.09,
      4637518.97
     ],
     [
      447374.41000000003,
      4637509.29
     ],
     [
      447462.44,
      4637503.859999999
     ]
    ]
   },
   "properties": {
    "kind": "bank",
    "name": "North Division shore: east bank of the North Branch and north bank of the main stem",
    "crest_ft_above_datum": null,
    "confidence": "inferred",
    "note": "Bank line is the water polygon's boundary where it is not the edge of the traced window. Crest heights are carried in the heightfield spec, not here, because they come from narrative feet and not from the map.",
    "sources": [
     "wright_1834"
    ]
   }
  },
  {
   "type": "Feature",
   "id": "south_division_shore",
   "geometry": {
    "type": "LineString",
    "coordinates": [
     [
      447462.82,
      4637439.37
     ],
     [
      447380.42,
      4637438.39
     ],
     [
      447304.4,
      4637420.88
     ],
     [
      447242.39,
      4637397.14
     ],
     [
      447200.66000000003,
      4637368.01
     ],
     [
      447192.34,
      4637358.42
     ],
     [
      447185.46,
      4637340.16
     ],
     [
      447159.18,
      4637296.87
     ],
     [
      447144.82,
      4637245.84
     ],
     [
      447135.85000000003,
      4637227.54
     ],
     [
      447133.2,
      4637202.12
     ],
     [
      447125.68,
      4637175.16
     ],
     [
      447118.39,
      4637109.79
     ],
     [
      447119.84,
      4637100.399999999
     ],
     [
      447115.29000000004,
      4637043.78
     ],
     [
      447108.62,
      4636991.47
     ]
    ]
   },
   "properties": {
    "kind": "bank",
    "name": "South Division shore: south bank of the main stem and east bank of the South Branch",
    "crest_ft_above_datum": null,
    "confidence": "inferred",
    "note": "Bank line is the water polygon's boundary where it is not the edge of the traced window. Crest heights are carried in the heightfield spec, not here, because they come from narrative feet and not from the map.",
    "sources": [
     "wright_1834"
    ]
   }
  }
 ]
}
