{
 "type": "FeatureCollection",
 "name": "south_branch_below_twelfth",
 "crs": {
  "type": "name",
  "properties": {
   "name": "urn:ogc:def:crs:EPSG::26916"
  }
 },
 "_doc": "The South Branch of the Chicago River from Twelfth Street to the terrain box's south wall, traced from REES & RUCKER, MAP OF CHICAGO AND VICINITY, 1849 by tools/trace_south_branch_rees_1849.py. The first geometry in this project taken from a sheet that reaches Cermak Road; see data/traces/gcp/rees_rucker_1849_gcps.json for the fit (14 section corners, RMS 25.0 m) and the tool's docstring for why a sheet fourteen years after the scene is the right one for a natural channel whose straightening is 1928-30. Every vertex here is INFERRED and every vertex here is also south of `evidence_limit`, which writes it CONF_CONJECTURAL; the field carries the more conservative of the two. This replaces the held easting recorded as L239.",
 "measured": {
  "channel_width_m": {
   "min": 23.4,
   "median": 49.9,
   "max": 67.2
  },
  "width_method": "full width at half the local peak ink density, per row, converted to a perpendicular width by the centreline's slope; rows reading more than 1.6x the 51-row median are rejected as leaks into the adjoining lot hatching and interpolated across",
  "width_at_splice_m": 32.5,
  "rows_rejected": 47,
  "rows_scanned": 860,
  "cross_check": "the committed Wright 1834 trace measures this channel at 45.3 m at the splice row N -2110 and stands its two banks at E +293.2 and +338.5; this sheet, independently drawn and independently georeferenced, puts them at E +287.1 and +319.1 -- 6.1 m and 19.4 m from Wright's, on a fit whose own RMS is 25.0 m. The two windows meet inside their own uncertainty. The channel reads narrower here than Wright's 45.3 m, which is the half-maximum rule being strict at a station where the hatch is light, not a river that steps in."
 },
 "features": [
  {
   "type": "Feature",
   "id": "south_branch_below_twelfth_water",
   "properties": {
    "kind": "water",
    "name": "The South Branch between Twelfth Street and the box floor",
    "crest_ft_above_datum": null,
    "confidence": "inferred",
    "note": "The band between the two bank runs below. The window's north edge is N -2110.0, the declared row tools/trace_south_branch.py's Wright trace last draws two banks on and the row terrain_spec's deleted `southern_branch` rule held from. The two windows abut on that row rather than within a tolerance. The south edge is the box floor at N -3800.0, which is the box and not the river: the sheet runs on another mile and a quarter.",
    "sources": [
     "rees_rucker_1849"
    ]
   },
   "geometry": {
    "type": "Polygon",
    "coordinates": [
     [
      [
       447359.8,
       4635282.68
      ],
      [
       447360.31,
       4635262.2
      ],
      [
       447362.41,
       4635236.63
      ],
      [
       447379.68,
       4635209.91
      ],
      [
       447405.85,
       4635189.36
      ],
      [
       447436.08,
       4635165.68
      ],
      [
       447468.97,
       4635147.74
      ],
      [
       447491.45,
       4635124.38
      ],
      [
       447503.15,
       4635108.4
      ],
      [
       447508.26,
       4635089.55
      ],
      [
       447535.11,
       4635071.11
      ],
      [
       447560.52,
       4635053.25
      ],
      [
       447575.09,
       4635033.96
      ],
      [
       447577.91,
       4635018.55
      ],
      [
       447579.99,
       4634999.02
      ],
      [
       447580.53,
       4634978.35
      ],
      [
       447582.27,
       4634956.4
      ],
      [
       447585.75,
       4634934.66
      ],
      [
       447589.12,
       4634915.74
      ],
      [
       447588.41,
       4634898.27
      ],
      [
       447586.44,
       4634878.68
      ],
      [
       447586.92,
       4634854.51
      ],
      [
       447594.46,
       4634830.51
      ],
      [
       447599.6,
       4634811.01
      ],
      [
       447601.12,
       4634793.21
      ],
      [
       447602.05,
       4634772.43
      ],
      [
       447608.32,
       4634751.24
      ],
      [
       447608.99,
       4634731.66
      ],
      [
       447608.69,
       4634712.89
      ],
      [
       447610.27,
       4634700.33
      ],
      [
       447612.01,
       4634685.24
      ],
      [
       447598.63,
       4634664.7
      ],
      [
       447578.21,
       4634643.74
      ],
      [
       447573.94,
       4634622.65
      ],
      [
       447554.65,
       4634602.18
      ],
      [
       447529.81,
       4634579.47
      ],
      [
       447500.13,
       4634561.97
      ],
      [
       447469.47,
       4634541.69
      ],
      [
       447444.63,
       4634519.41
      ],
      [
       447437.61,
       4634501.59
      ],
      [
       447433.06,
       4634482.74
      ],
      [
       447413.15,
       4634461.6
      ],
      [
       447393.6,
       4634441.13
      ],
      [
       447378.03,
       4634418.29
      ],
      [
       447366.55,
       4634400.68
      ],
      [
       447358.12,
       4634377.56
      ],
      [
       447333.86,
       4634356.89
      ],
      [
       447302.1,
       4634338.31
      ],
      [
       447281.56,
       4634314.98
      ],
      [
       447271.63,
       4634291.64
      ],
      [
       447264.85,
       4634269.16
      ],
      [
       447256.57,
       4634245.91
      ],
      [
       447250.45,
       4634220.46
      ],
      [
       447251.83,
       4634196.05
      ],
      [
       447255.25,
       4634173.55
      ],
      [
       447257.55,
       4634152.09
      ],
      [
       447261.51,
       4634127.13
      ],
      [
       447273.98,
       4634105.75
      ],
      [
       447277.19,
       4634094.17
      ],
      [
       447279.25,
       4634084.0
      ],
      [
       447267.1,
       4634068.01
      ],
      [
       447257.81,
       4634047.0
      ],
      [
       447247.03,
       4634027.74
      ],
      [
       447238.42,
       4634009.53
      ],
      [
       447223.56,
       4633985.64
      ],
      [
       447190.53,
       4633963.78
      ],
      [
       447152.16,
       4633942.54
      ],
      [
       447118.67,
       4633922.53
      ],
      [
       447082.04,
       4633899.15
      ],
      [
       447037.48,
       4633879.15
      ],
      [
       446996.15,
       4633862.13
      ],
      [
       446964.47,
       4633842.38
      ],
      [
       446957.65,
       4633819.6
      ],
      [
       446949.8,
       4633800.99
      ],
      [
       446928.94,
       4633782.89
      ],
      [
       446917.36,
       4633759.98
      ],
      [
       446902.36,
       4633739.22
      ],
      [
       446883.41,
       4633716.9
      ],
      [
       446862.74,
       4633694.56
      ],
      [
       446847.4,
       4633664.56
      ],
      [
       446851.6,
       4633636.26
      ],
      [
       446855.03,
       4633626.64
      ],
      [
       446856.7,
       4633612.69
      ],
      [
       446828.93,
       4633593.17
      ],
      [
       446805.98,
       4633572.43
      ],
      [
       446866.61,
       4633543.5
      ],
      [
       446863.33,
       4633563.97
      ],
      [
       446886.17,
       4633586.01
      ],
      [
       446912.23,
       4633613.33
      ],
      [
       446910.41,
       4633644.63
      ],
      [
       446908.21,
       4633657.26
      ],
      [
       446909.12,
       4633668.42
      ],
      [
       446918.7,
       4633687.42
      ],
      [
       446938.63,
       4633706.52
      ],
      [
       446959.41,
       4633727.16
      ],
      [
       446976.62,
       4633745.57
      ],
      [
       446991.71,
       4633768.85
      ],
      [
       447011.34,
       4633791.55
      ],
      [
       447020.11,
       4633809.93
      ],
      [
       447020.96,
       4633831.54
      ],
      [
       447049.62,
       4633856.3
      ],
      [
       447092.64,
       4633878.27
      ],
      [
       447133.66,
       4633896.76
      ],
      [
       447166.25,
       4633918.48
      ],
      [
       447204.54,
       4633939.09
      ],
      [
       447242.31,
       4633959.02
      ],
      [
       447274.97,
       4633976.65
      ],
      [
       447293.35,
       4633999.74
      ],
      [
       447305.49,
       4634021.72
      ],
      [
       447317.0,
       4634041.94
      ],
      [
       447327.12,
       4634067.19
      ],
      [
       447335.82,
       4634098.08
      ],
      [
       447326.94,
       4634127.36
      ],
      [
       447318.19,
       4634146.74
      ],
      [
       447315.11,
       4634162.69
      ],
      [
       447309.38,
       4634182.12
      ],
      [
       447307.87,
       4634200.56
      ],
      [
       447307.59,
       4634217.12
      ],
      [
       447307.94,
       4634232.73
      ],
      [
       447314.27,
       4634250.64
      ],
      [
       447323.74,
       4634269.33
      ],
      [
       447332.82,
       4634287.2
      ],
      [
       447337.96,
       4634305.14
      ],
      [
       447357.15,
       4634328.12
      ],
      [
       447384.63,
       4634349.03
      ],
      [
       447413.78,
       4634367.32
      ],
      [
       447423.11,
       4634390.94
      ],
      [
       447436.81,
       4634409.42
      ],
      [
       447448.65,
       4634430.29
      ],
      [
       447470.39,
       4634450.61
      ],
      [
       447495.44,
       4634473.08
      ],
      [
       447499.45,
       4634496.38
      ],
      [
       447498.18,
       4634515.36
      ],
      [
       447519.92,
       4634536.65
      ],
      [
       447544.27,
       4634560.75
      ],
      [
       447573.13,
       4634579.63
      ],
      [
       447601.51,
       4634600.69
      ],
      [
       447615.44,
       4634620.79
      ],
      [
       447627.72,
       4634641.19
      ],
      [
       447648.5,
       4634662.03
      ],
      [
       447668.6,
       4634688.14
      ],
      [
       447668.99,
       4634716.55
      ],
      [
       447664.91,
       4634738.73
      ],
      [
       447659.03,
       4634760.07
      ],
      [
       447657.6,
       4634779.78
      ],
      [
       447655.39,
       4634799.96
      ],
      [
       447649.87,
       4634823.07
      ],
      [
       447642.42,
       4634844.42
      ],
      [
       447638.85,
       4634861.28
      ],
      [
       447639.77,
       4634878.1
      ],
      [
       447638.25,
       4634899.51
      ],
      [
       447635.05,
       4634923.01
      ],
      [
       447627.96,
       4634944.96
      ],
      [
       447621.95,
       4634964.1
      ],
      [
       447617.29,
       4634983.07
      ],
      [
       447613.73,
       4635003.35
      ],
      [
       447609.41,
       4635024.73
      ],
      [
       447602.58,
       4635050.21
      ],
      [
       447578.68,
       4635071.47
      ],
      [
       447561.21,
       4635094.12
      ],
      [
       447559.35,
       4635116.35
      ],
      [
       447550.41,
       4635138.33
      ],
      [
       447524.61,
       4635162.92
      ],
      [
       447490.54,
       4635179.91
      ],
      [
       447459.71,
       4635202.25
      ],
      [
       447428.98,
       4635218.88
      ],
      [
       447412.93,
       4635238.83
      ],
      [
       447401.82,
       4635252.79
      ],
      [
       447398.83,
       4635268.15
      ],
      [
       447391.81,
       4635288.58
      ],
      [
       447359.8,
       4635282.68
      ]
     ]
    ]
   }
  },
  {
   "type": "Feature",
   "id": "south_branch_west_bank_below_twelfth",
   "properties": {
    "kind": "bank",
    "name": "West bank of the South Branch below Twelfth Street",
    "crest_ft_above_datum": null,
    "confidence": "inferred",
    "note": "The traced centreline offset west by half the measured channel width along its own normal, in metres. The window's north edge is N -2110.0, the declared row tools/trace_south_branch.py's Wright trace last draws two banks on and the row terrain_spec's deleted `southern_branch` rule held from. The two windows abut on that row rather than within a tolerance. The south edge is the box floor at N -3800.0, which is the box and not the river: the sheet runs on another mile and a quarter.",
    "sources": [
     "rees_rucker_1849"
    ]
   },
   "geometry": {
    "type": "LineString",
    "coordinates": [
     [
      447359.8,
      4635282.68
     ],
     [
      447360.31,
      4635262.2
     ],
     [
      447362.41,
      4635236.63
     ],
     [
      447379.68,
      4635209.91
     ],
     [
      447405.85,
      4635189.36
     ],
     [
      447436.08,
      4635165.68
     ],
     [
      447468.97,
      4635147.74
     ],
     [
      447491.45,
      4635124.38
     ],
     [
      447503.15,
      4635108.4
     ],
     [
      447508.26,
      4635089.55
     ],
     [
      447535.11,
      4635071.11
     ],
     [
      447560.52,
      4635053.25
     ],
     [
      447575.09,
      4635033.96
     ],
     [
      447577.91,
      4635018.55
     ],
     [
      447579.99,
      4634999.02
     ],
     [
      447580.53,
      4634978.35
     ],
     [
      447582.27,
      4634956.4
     ],
     [
      447585.75,
      4634934.66
     ],
     [
      447589.12,
      4634915.74
     ],
     [
      447588.41,
      4634898.27
     ],
     [
      447586.44,
      4634878.68
     ],
     [
      447586.92,
      4634854.51
     ],
     [
      447594.46,
      4634830.51
     ],
     [
      447599.6,
      4634811.01
     ],
     [
      447601.12,
      4634793.21
     ],
     [
      447602.05,
      4634772.43
     ],
     [
      447608.32,
      4634751.24
     ],
     [
      447608.99,
      4634731.66
     ],
     [
      447608.69,
      4634712.89
     ],
     [
      447610.27,
      4634700.33
     ],
     [
      447612.01,
      4634685.24
     ],
     [
      447598.63,
      4634664.7
     ],
     [
      447578.21,
      4634643.74
     ],
     [
      447573.94,
      4634622.65
     ],
     [
      447554.65,
      4634602.18
     ],
     [
      447529.81,
      4634579.47
     ],
     [
      447500.13,
      4634561.97
     ],
     [
      447469.47,
      4634541.69
     ],
     [
      447444.63,
      4634519.41
     ],
     [
      447437.61,
      4634501.59
     ],
     [
      447433.06,
      4634482.74
     ],
     [
      447413.15,
      4634461.6
     ],
     [
      447393.6,
      4634441.13
     ],
     [
      447378.03,
      4634418.29
     ],
     [
      447366.55,
      4634400.68
     ],
     [
      447358.12,
      4634377.56
     ],
     [
      447333.86,
      4634356.89
     ],
     [
      447302.1,
      4634338.31
     ],
     [
      447281.56,
      4634314.98
     ],
     [
      447271.63,
      4634291.64
     ],
     [
      447264.85,
      4634269.16
     ],
     [
      447256.57,
      4634245.91
     ],
     [
      447250.45,
      4634220.46
     ],
     [
      447251.83,
      4634196.05
     ],
     [
      447255.25,
      4634173.55
     ],
     [
      447257.55,
      4634152.09
     ],
     [
      447261.51,
      4634127.13
     ],
     [
      447273.98,
      4634105.75
     ],
     [
      447277.19,
      4634094.17
     ],
     [
      447279.25,
      4634084.0
     ],
     [
      447267.1,
      4634068.01
     ],
     [
      447257.81,
      4634047.0
     ],
     [
      447247.03,
      4634027.74
     ],
     [
      447238.42,
      4634009.53
     ],
     [
      447223.56,
      4633985.64
     ],
     [
      447190.53,
      4633963.78
     ],
     [
      447152.16,
      4633942.54
     ],
     [
      447118.67,
      4633922.53
     ],
     [
      447082.04,
      4633899.15
     ],
     [
      447037.48,
      4633879.15
     ],
     [
      446996.15,
      4633862.13
     ],
     [
      446964.47,
      4633842.38
     ],
     [
      446957.65,
      4633819.6
     ],
     [
      446949.8,
      4633800.99
     ],
     [
      446928.94,
      4633782.89
     ],
     [
      446917.36,
      4633759.98
     ],
     [
      446902.36,
      4633739.22
     ],
     [
      446883.41,
      4633716.9
     ],
     [
      446862.74,
      4633694.56
     ],
     [
      446847.4,
      4633664.56
     ],
     [
      446851.6,
      4633636.26
     ],
     [
      446855.03,
      4633626.64
     ],
     [
      446856.7,
      4633612.69
     ],
     [
      446828.93,
      4633593.17
     ],
     [
      446805.98,
      4633572.43
     ]
    ]
   }
  },
  {
   "type": "Feature",
   "id": "south_branch_east_bank_below_twelfth",
   "properties": {
    "kind": "bank",
    "name": "East bank of the South Branch below Twelfth Street",
    "crest_ft_above_datum": null,
    "confidence": "inferred",
    "note": "The traced centreline offset east by half the measured channel width along its own normal, in metres. The window's north edge is N -2110.0, the declared row tools/trace_south_branch.py's Wright trace last draws two banks on and the row terrain_spec's deleted `southern_branch` rule held from. The two windows abut on that row rather than within a tolerance. The south edge is the box floor at N -3800.0, which is the box and not the river: the sheet runs on another mile and a quarter.",
    "sources": [
     "rees_rucker_1849"
    ]
   },
   "geometry": {
    "type": "LineString",
    "coordinates": [
     [
      447391.81,
      4635288.58
     ],
     [
      447398.83,
      4635268.15
     ],
     [
      447401.82,
      4635252.79
     ],
     [
      447412.93,
      4635238.83
     ],
     [
      447428.98,
      4635218.88
     ],
     [
      447459.71,
      4635202.25
     ],
     [
      447490.54,
      4635179.91
     ],
     [
      447524.61,
      4635162.92
     ],
     [
      447550.41,
      4635138.33
     ],
     [
      447559.35,
      4635116.35
     ],
     [
      447561.21,
      4635094.12
     ],
     [
      447578.68,
      4635071.47
     ],
     [
      447602.58,
      4635050.21
     ],
     [
      447609.41,
      4635024.73
     ],
     [
      447613.73,
      4635003.35
     ],
     [
      447617.29,
      4634983.07
     ],
     [
      447621.95,
      4634964.1
     ],
     [
      447627.96,
      4634944.96
     ],
     [
      447635.05,
      4634923.01
     ],
     [
      447638.25,
      4634899.51
     ],
     [
      447639.77,
      4634878.1
     ],
     [
      447638.85,
      4634861.28
     ],
     [
      447642.42,
      4634844.42
     ],
     [
      447649.87,
      4634823.07
     ],
     [
      447655.39,
      4634799.96
     ],
     [
      447657.6,
      4634779.78
     ],
     [
      447659.03,
      4634760.07
     ],
     [
      447664.91,
      4634738.73
     ],
     [
      447668.99,
      4634716.55
     ],
     [
      447668.6,
      4634688.14
     ],
     [
      447648.5,
      4634662.03
     ],
     [
      447627.72,
      4634641.19
     ],
     [
      447615.44,
      4634620.79
     ],
     [
      447601.51,
      4634600.69
     ],
     [
      447573.13,
      4634579.63
     ],
     [
      447544.27,
      4634560.75
     ],
     [
      447519.92,
      4634536.65
     ],
     [
      447498.18,
      4634515.36
     ],
     [
      447499.45,
      4634496.38
     ],
     [
      447495.44,
      4634473.08
     ],
     [
      447470.39,
      4634450.61
     ],
     [
      447448.65,
      4634430.29
     ],
     [
      447436.81,
      4634409.42
     ],
     [
      447423.11,
      4634390.94
     ],
     [
      447413.78,
      4634367.32
     ],
     [
      447384.63,
      4634349.03
     ],
     [
      447357.15,
      4634328.12
     ],
     [
      447337.96,
      4634305.14
     ],
     [
      447332.82,
      4634287.2
     ],
     [
      447323.74,
      4634269.33
     ],
     [
      447314.27,
      4634250.64
     ],
     [
      447307.94,
      4634232.73
     ],
     [
      447307.59,
      4634217.12
     ],
     [
      447307.87,
      4634200.56
     ],
     [
      447309.38,
      4634182.12
     ],
     [
      447315.11,
      4634162.69
     ],
     [
      447318.19,
      4634146.74
     ],
     [
      447326.94,
      4634127.36
     ],
     [
      447335.82,
      4634098.08
     ],
     [
      447327.12,
      4634067.19
     ],
     [
      447317.0,
      4634041.94
     ],
     [
      447305.49,
      4634021.72
     ],
     [
      447293.35,
      4633999.74
     ],
     [
      447274.97,
      4633976.65
     ],
     [
      447242.31,
      4633959.02
     ],
     [
      447204.54,
      4633939.09
     ],
     [
      447166.25,
      4633918.48
     ],
     [
      447133.66,
      4633896.76
     ],
     [
      447092.64,
      4633878.27
     ],
     [
      447049.62,
      4633856.3
     ],
     [
      447020.96,
      4633831.54
     ],
     [
      447020.11,
      4633809.93
     ],
     [
      447011.34,
      4633791.55
     ],
     [
      446991.71,
      4633768.85
     ],
     [
      446976.62,
      4633745.57
     ],
     [
      446959.41,
      4633727.16
     ],
     [
      446938.63,
      4633706.52
     ],
     [
      446918.7,
      4633687.42
     ],
     [
      446909.12,
      4633668.42
     ],
     [
      446908.21,
      4633657.26
     ],
     [
      446910.41,
      4633644.63
     ],
     [
      446912.23,
      4633613.33
     ],
     [
      446886.17,
      4633586.01
     ],
     [
      446863.33,
      4633563.97
     ],
     [
      446866.61,
      4633543.5
     ]
    ]
   }
  }
 ]
}
